{
"type": "FeatureCollection",
"name": "bike_sharing_all",
"crs": { "type": "name", "properties": { "name": "urn:ogc:def:crs:OGC:1.3:CRS84" } },
"features": [
{ "type": "Feature", "properties": { "id_bike_sharing": "21", "stazione": "CLN", "url": "http://www.tobike.it/frmLeStazioni.aspx", "service_type": "mobility", "service_subtype": "bike_sharing", "name": "Stazione bike sharing" }, "geometry": { "type": "Point", "coordinates": [ 7.682282542445517, 45.066110261158094 ] } },
{ "type": "Feature", "properties": { "id_bike_sharing": "27", "stazione": "Carlo Alberto", "url": "http://www.tobike.it/frmLeStazioni.aspx", "service_type": "mobility", "service_subtype": "bike_sharing", "name": "Stazione bike sharing" }, "geometry": { "type": "Point", "coordinates": [ 7.686617124394646, 45.068094987851204 ] } },
{ "type": "Feature", "properties": { "id_bike_sharing": "66", "stazione": "Giolitti 1", "url": "http://www.tobike.it/frmLeStazioni.aspx", "service_type": "mobility", "service_subtype": "bike_sharing", "name": "Stazione bike sharing" }, "geometry": { "type": "Point", "coordinates": [ 7.683443393699712, 45.066547771880622 ] } },
{ "type": "Feature", "properties": { "id_bike_sharing": "23", "stazione": "Castello 2", "url": "http://www.tobike.it/frmLeStazioni.aspx", "service_type": "mobility", "service_subtype": "bike_sharing", "name": "Stazione bike sharing" }, "geometry": { "type": "Point", "coordinates": [ 7.68634624070224, 45.069941587263266 ] } },
{ "type": "Feature", "properties": { "id_bike_sharing": "11", "stazione": "Porta Palatina", "url": "http://www.tobike.it/frmLeStazioni.aspx", "service_type": "mobility", "service_subtype": "bike_sharing", "name": "Stazione bike sharing" }, "geometry": { "type": "Point", "coordinates": [ 7.683943878397029, 45.073810237505626 ] } },
{ "type": "Feature", "properties": { "id_bike_sharing": "62", "stazione": "Pietro Micca", "url": "http://www.tobike.it/frmLeStazioni.aspx", "service_type": "mobility", "service_subtype": "bike_sharing", "name": "Stazione bike sharing" }, "geometry": { "type": "Point", "coordinates": [ 7.682151447388674, 45.070552994465167 ] } },
{ "type": "Feature", "properties": { "id_bike_sharing": "7", "stazione": "via della consolata", "url": "http://www.tobike.it/frmLeStazioni.aspx", "service_type": "mobility", "service_subtype": "bike_sharing", "name": "Stazione bike sharing" }, "geometry": { "type": "Point", "coordinates": [ 7.677948901943245, 45.075687678378223 ] } },
{ "type": "Feature", "properties": { "id_bike_sharing": "8", "stazione": "Corte d`Appello", "url": "http://www.tobike.it/frmLeStazioni.aspx", "service_type": "mobility", "service_subtype": "bike_sharing", "name": "Stazione bike sharing" }, "geometry": { "type": "Point", "coordinates": [ 7.679066335933626, 45.074337818759439 ] } },
{ "type": "Feature", "properties": { "id_bike_sharing": "64", "stazione": "Arbarello", "url": "http://www.tobike.it/frmLeStazioni.aspx", "service_type": "mobility", "service_subtype": "bike_sharing", "name": "Stazione bike sharing" }, "geometry": { "type": "Point", "coordinates": [ 7.676640957691127, 45.073622620323611 ] } },
{ "type": "Feature", "properties": { "id_bike_sharing": "10", "stazione": "XI Febbraio", "url": "http://www.tobike.it/frmLeStazioni.aspx", "service_type": "mobility", "service_subtype": "bike_sharing", "name": "Stazione bike sharing" }, "geometry": { "type": "Point", "coordinates": [ 7.687338223668362, 45.076829929993671 ] } },
{ "type": "Feature", "properties": { "id_bike_sharing": "24", "stazione": "Universita' 1", "url": "http://www.tobike.it/frmLeStazioni.aspx", "service_type": "mobility", "service_subtype": "bike_sharing", "name": "Stazione bike sharing" }, "geometry": { "type": "Point", "coordinates": [ 7.694363663459714, 45.068443441347348 ] } },
{ "type": "Feature", "properties": { "id_bike_sharing": "25", "stazione": "Universita' 3", "url": "http://www.tobike.it/frmLeStazioni.aspx", "service_type": "mobility", "service_subtype": "bike_sharing", "name": "Stazione bike sharing" }, "geometry": { "type": "Point", "coordinates": [ 7.691702557273413, 45.0675131985478 ] } },
{ "type": "Feature", "properties": { "id_bike_sharing": "26", "stazione": "San Francesco da Paola", "url": "http://www.tobike.it/frmLeStazioni.aspx", "service_type": "mobility", "service_subtype": "bike_sharing", "name": "Stazione bike sharing" }, "geometry": { "type": "Point", "coordinates": [ 7.689106615300924, 45.068549673231615 ] } },
{ "type": "Feature", "properties": { "id_bike_sharing": "88", "stazione": "RAI", "url": "http://www.tobike.it/frmLeStazioni.aspx", "service_type": "mobility", "service_subtype": "bike_sharing", "name": "Stazione bike sharing" }, "geometry": { "type": "Point", "coordinates": [ 7.691343025330481, 45.068870997172851 ] } },
{ "type": "Feature", "properties": { "id_bike_sharing": "78", "stazione": "Torino Esposizioni", "url": "http://www.tobike.it/frmLeStazioni.aspx", "service_type": "mobility", "service_subtype": "bike_sharing", "name": "Stazione bike sharing" }, "geometry": { "type": "Point", "coordinates": [ 7.681223659614048, 45.050432869625922 ] } }
]
}
