{
"type": "FeatureCollection",
"name": "route_segments",
"crs": { "type": "name", "properties": { "name": "urn:ogc:def:crs:OGC:1.3:CRS84" } },
"features": [
{ "type": "Feature", "properties": { "route_id": "torino_nascosta_centro", "route_title": "Torino Nascosta nel Centro", "segment_id": "torino_nascosta_centro_01", "segment_index": 1, "from_artwork_id": "testa-michelangelo", "to_artwork_id": "statua-emanuele-filiberto", "from_title": "Testa rovesciata del David", "to_title": "Monumento a Emanuele Filiberto (Caval ëd Bronz)", "profile": "foot-walking", "distance_m": 235.9, "duration_min": 2.83, "notes": "Segmento generato automaticamente con ORS tra due tappe consecutive." }, "geometry": { "type": "LineString", "coordinates": [ [ 7.683895, 45.06749 ], [ 7.684204, 45.067918 ], [ 7.684126, 45.067946 ], [ 7.683504, 45.068171 ], [ 7.683146, 45.0683 ], [ 7.683026, 45.068344 ], [ 7.68304, 45.06833 ], [ 7.682941, 45.068168 ], [ 7.68289, 45.067941 ], [ 7.682744, 45.067687 ] ] } },
{ "type": "Feature", "properties": { "route_id": "torino_nascosta_centro", "route_title": "Torino Nascosta nel Centro", "segment_id": "torino_nascosta_centro_02", "segment_index": 2, "from_artwork_id": "statua-emanuele-filiberto", "to_artwork_id": "dito-colombo", "from_title": "Monumento a Emanuele Filiberto (Caval ëd Bronz)", "to_title": "Il Dito di Colombo", "profile": "foot-walking", "distance_m": 774.6, "duration_min": 9.295, "notes": "Segmento generato automaticamente con ORS tra due tappe consecutive." }, "geometry": { "type": "LineString", "coordinates": [ [ 7.682744, 45.067687 ], [ 7.68289, 45.067941 ], [ 7.682941, 45.068168 ], [ 7.68304, 45.06833 ], [ 7.683026, 45.068344 ], [ 7.683146, 45.0683 ], [ 7.683167, 45.068332 ], [ 7.683189, 45.068364 ], [ 7.683548, 45.068242 ], [ 7.68417, 45.068014 ], [ 7.684254, 45.06799 ], [ 7.684814, 45.068755 ], [ 7.684821, 45.068765 ], [ 7.684832, 45.068781 ], [ 7.684847, 45.068801 ], [ 7.685096, 45.069148 ], [ 7.685353, 45.069506 ], [ 7.685761, 45.070048 ], [ 7.685804, 45.070033 ], [ 7.686668, 45.069718 ], [ 7.68696, 45.070119 ], [ 7.686983, 45.070151 ], [ 7.686987, 45.070157 ], [ 7.686994, 45.070167 ], [ 7.687026, 45.070208 ], [ 7.687041, 45.070232 ], [ 7.687107, 45.070324 ], [ 7.68714, 45.070372 ], [ 7.687164, 45.070405 ], [ 7.687183, 45.070428 ], [ 7.687197, 45.070444 ], [ 7.687615, 45.071026 ], [ 7.687666, 45.07111 ], [ 7.68761, 45.071139 ], [ 7.687596, 45.071163 ], [ 7.687556, 45.071181 ], [ 7.68751, 45.071198 ], [ 7.687483, 45.071207 ], [ 7.686868, 45.07143 ] ] } },
{ "type": "Feature", "properties": { "route_id": "torino_nascosta_centro", "route_title": "Torino Nascosta nel Centro", "segment_id": "torino_nascosta_centro_03", "segment_index": 3, "from_artwork_id": "dito-colombo", "to_artwork_id": "palazzo-piercing", "from_title": "Il Dito di Colombo", "to_title": "Baci Urbani (Palazzo con il Piercing)", "profile": "foot-walking", "distance_m": 825.1, "duration_min": 9.9, "notes": "Segmento generato automaticamente con ORS tra due tappe consecutive." }, "geometry": { "type": "LineString", "coordinates": [ [ 7.686868, 45.07143 ], [ 7.687483, 45.071207 ], [ 7.68751, 45.071198 ], [ 7.687556, 45.071181 ], [ 7.687596, 45.071163 ], [ 7.68761, 45.071139 ], [ 7.687666, 45.07111 ], [ 7.687615, 45.071026 ], [ 7.687197, 45.070444 ], [ 7.687183, 45.070428 ], [ 7.687164, 45.070405 ], [ 7.68714, 45.070372 ], [ 7.687107, 45.070324 ], [ 7.687041, 45.070232 ], [ 7.687026, 45.070208 ], [ 7.686994, 45.070167 ], [ 7.686987, 45.070157 ], [ 7.686983, 45.070151 ], [ 7.68696, 45.070119 ], [ 7.686668, 45.069718 ], [ 7.685804, 45.070033 ], [ 7.685761, 45.070048 ], [ 7.685705, 45.070068 ], [ 7.685457, 45.070156 ], [ 7.684677, 45.070427 ], [ 7.684637, 45.070443 ], [ 7.684552, 45.070471 ], [ 7.684489, 45.070493 ], [ 7.684421, 45.070517 ], [ 7.684106, 45.070617 ], [ 7.68404, 45.070637 ], [ 7.683953, 45.070625 ], [ 7.683898, 45.070645 ], [ 7.683927, 45.070717 ], [ 7.683923, 45.070758 ], [ 7.683657, 45.070845 ], [ 7.683181, 45.071001 ], [ 7.683127, 45.071019 ], [ 7.683083, 45.071035 ], [ 7.683097, 45.071057 ], [ 7.683543, 45.071748 ], [ 7.682605, 45.072078 ], [ 7.682844, 45.072455 ], [ 7.682489, 45.072567 ], [ 7.682509, 45.072598 ], [ 7.682514, 45.072607 ] ] } },
{ "type": "Feature", "properties": { "route_id": "torino_nascosta_centro", "route_title": "Torino Nascosta nel Centro", "segment_id": "torino_nascosta_centro_04", "segment_index": 4, "from_artwork_id": "palazzo-piercing", "to_artwork_id": "toro-muro", "from_title": "Baci Urbani (Palazzo con il Piercing)", "to_title": "T'ORO - Il Toro che esce dal muro", "profile": "foot-walking", "distance_m": 570.2, "duration_min": 6.8433333333333337, "notes": "Segmento generato automaticamente con ORS tra due tappe consecutive." }, "geometry": { "type": "LineString", "coordinates": [ [ 7.682514, 45.072607 ], [ 7.68254, 45.072648 ], [ 7.681933, 45.072839 ], [ 7.681952, 45.072868 ], [ 7.681967, 45.072893 ], [ 7.681992, 45.072931 ], [ 7.682053, 45.073027 ], [ 7.682165, 45.07321 ], [ 7.682282, 45.073413 ], [ 7.682309, 45.073462 ], [ 7.682332, 45.073501 ], [ 7.68251, 45.073822 ], [ 7.682468, 45.073833 ], [ 7.682486, 45.073866 ], [ 7.682298, 45.07394 ], [ 7.682271, 45.073961 ], [ 7.681935, 45.074102 ], [ 7.681895, 45.074116 ], [ 7.68186, 45.074129 ], [ 7.681924, 45.074227 ], [ 7.680929, 45.074486 ], [ 7.680913, 45.07449 ], [ 7.680903, 45.074495 ], [ 7.680005, 45.074806 ], [ 7.680015, 45.074819 ], [ 7.679033, 45.075122 ], [ 7.679093, 45.075201 ], [ 7.679209, 45.075373 ], [ 7.679229, 45.075367 ], [ 7.679437, 45.075646 ] ] } },
{ "type": "Feature", "properties": { "route_id": "torino_nascosta_centro", "route_title": "Torino Nascosta nel Centro", "segment_id": "torino_nascosta_centro_05", "segment_index": 5, "from_artwork_id": "toro-muro", "to_artwork_id": "palle-cannone", "from_title": "T'ORO - Il Toro che esce dal muro", "to_title": "Le Palle di Cannone dell'Assedio", "profile": "foot-walking", "distance_m": 1300.5, "duration_min": 15.605, "notes": "Segmento generato automaticamente con ORS tra due tappe consecutive." }, "geometry": { "type": "LineString", "coordinates": [ [ 7.679437, 45.075646 ], [ 7.679229, 45.075367 ], [ 7.679209, 45.075373 ], [ 7.679093, 45.075201 ], [ 7.679033, 45.075122 ], [ 7.678652, 45.07454 ], [ 7.67866, 45.074521 ], [ 7.678649, 45.074504 ], [ 7.678635, 45.074481 ], [ 7.678605, 45.074436 ], [ 7.679497, 45.07411 ], [ 7.678978, 45.073356 ], [ 7.678515, 45.072671 ], [ 7.678501, 45.072659 ], [ 7.679065, 45.072443 ], [ 7.679396, 45.07232 ], [ 7.680365, 45.071974 ], [ 7.680407, 45.071959 ], [ 7.680433, 45.071949 ], [ 7.681109, 45.07172 ], [ 7.681104, 45.071713 ], [ 7.680932, 45.07144 ], [ 7.680906, 45.071402 ], [ 7.680742, 45.071182 ], [ 7.680783, 45.071167 ], [ 7.680814, 45.071088 ], [ 7.680787, 45.071041 ], [ 7.680779, 45.071026 ], [ 7.680767, 45.071007 ], [ 7.68109, 45.070896 ], [ 7.681526, 45.070711 ], [ 7.681526, 45.070672 ], [ 7.681522, 45.070644 ], [ 7.681469, 45.070638 ], [ 7.681474, 45.07058 ], [ 7.681478, 45.070518 ], [ 7.681417, 45.070408 ], [ 7.681232, 45.070171 ], [ 7.681278, 45.070155 ], [ 7.681337, 45.070133 ], [ 7.6814, 45.070111 ], [ 7.681346, 45.070039 ], [ 7.681279, 45.069953 ], [ 7.68125, 45.069915 ], [ 7.681945, 45.069663 ], [ 7.6821, 45.06961 ], [ 7.682036, 45.06952 ], [ 7.681943, 45.069377 ], [ 7.68196, 45.069371 ], [ 7.681916, 45.069295 ], [ 7.681818, 45.069106 ], [ 7.681823, 45.068906 ], [ 7.681811, 45.068889 ], [ 7.681875, 45.06887 ], [ 7.681865, 45.068849 ], [ 7.681869, 45.068842 ], [ 7.681847, 45.068803 ], [ 7.682553, 45.068554 ], [ 7.682533, 45.068527 ], [ 7.682893, 45.068395 ], [ 7.683026, 45.068344 ], [ 7.683146, 45.0683 ], [ 7.683504, 45.068171 ], [ 7.6835, 45.068166 ], [ 7.683096, 45.067611 ] ] } },
{ "type": "Feature", "properties": { "route_id": "torino_reale_monumentale", "route_title": "Torino Reale e Monumentale", "segment_id": "torino_reale_monumentale_01", "segment_index": 1, "from_artwork_id": "palazzo-madama", "to_artwork_id": "musei-reali", "from_title": "Palazzo Madama", "to_title": "Musei Reali", "profile": "foot-walking", "distance_m": 286.7, "duration_min": 3.4416666666666669, "notes": "Segmento generato automaticamente con ORS tra due tappe consecutive." }, "geometry": { "type": "LineString", "coordinates": [ [ 7.685274, 45.070592 ], [ 7.685155, 45.070657 ], [ 7.684649, 45.070813 ], [ 7.684664, 45.070838 ], [ 7.684944, 45.071264 ], [ 7.685336, 45.071859 ], [ 7.685533, 45.071796 ], [ 7.68561, 45.071909 ], [ 7.686019, 45.072493 ] ] } },
{ "type": "Feature", "properties": { "route_id": "torino_reale_monumentale", "route_title": "Torino Reale e Monumentale", "segment_id": "torino_reale_monumentale_02", "segment_index": 2, "from_artwork_id": "musei-reali", "to_artwork_id": "cappella-sindone", "from_title": "Musei Reali", "to_title": "Cappella della Sacra Sindone", "profile": "foot-walking", "distance_m": 95.9, "duration_min": 1.15, "notes": "Segmento generato automaticamente con ORS tra due tappe consecutive." }, "geometry": { "type": "LineString", "coordinates": [ [ 7.686019, 45.072493 ], [ 7.686126, 45.072647 ], [ 7.686153, 45.072684 ], [ 7.686274, 45.072867 ], [ 7.685942, 45.07298 ], [ 7.686054, 45.073149 ] ] } },
{ "type": "Feature", "properties": { "route_id": "torino_reale_monumentale", "route_title": "Torino Reale e Monumentale", "segment_id": "torino_reale_monumentale_03", "segment_index": 3, "from_artwork_id": "cappella-sindone", "to_artwork_id": "porta-palatina", "from_title": "Cappella della Sacra Sindone", "to_title": "Porta Palatina", "profile": "foot-walking", "distance_m": 467.3, "duration_min": 5.6083333333333334, "notes": "Segmento generato automaticamente con ORS tra due tappe consecutive." }, "geometry": { "type": "LineString", "coordinates": [ [ 7.686054, 45.073149 ], [ 7.685942, 45.07298 ], [ 7.686274, 45.072867 ], [ 7.686153, 45.072684 ], [ 7.685632, 45.072854 ], [ 7.685607, 45.072825 ], [ 7.68542, 45.072909 ], [ 7.68522, 45.07299 ], [ 7.685121, 45.073131 ], [ 7.684805, 45.073247 ], [ 7.685156, 45.073795 ], [ 7.685026, 45.073839 ], [ 7.684967, 45.073858 ], [ 7.68479, 45.07392 ], [ 7.684686, 45.073956 ], [ 7.684528, 45.07401 ], [ 7.684197, 45.074124 ], [ 7.684216, 45.074153 ], [ 7.684165, 45.074188 ], [ 7.68411, 45.074206 ], [ 7.684507, 45.074811 ], [ 7.684516, 45.074823 ], [ 7.684592, 45.074857 ], [ 7.684685, 45.074991 ], [ 7.684694, 45.075001 ], [ 7.684694, 45.075002 ] ] } },
{ "type": "Feature", "properties": { "route_id": "torino_reale_monumentale", "route_title": "Torino Reale e Monumentale", "segment_id": "torino_reale_monumentale_04", "segment_index": 4, "from_artwork_id": "porta-palatina", "to_artwork_id": "dito-colombo", "from_title": "Porta Palatina", "to_title": "Il Dito di Colombo", "profile": "foot-walking", "distance_m": 1008.6, "duration_min": 12.103333333333333, "notes": "Segmento generato automaticamente con ORS tra due tappe consecutive." }, "geometry": { "type": "LineString", "coordinates": [ [ 7.684694, 45.075002 ], [ 7.684723, 45.075043 ], [ 7.684703, 45.07508 ], [ 7.684755, 45.075162 ], [ 7.684799, 45.075233 ], [ 7.684871, 45.075314 ], [ 7.684936, 45.075296 ], [ 7.685366, 45.0759 ], [ 7.686076, 45.07568 ], [ 7.686121, 45.075665 ], [ 7.686175, 45.075647 ], [ 7.686216, 45.075635 ], [ 7.686551, 45.075522 ], [ 7.688988, 45.074717 ], [ 7.689166, 45.074535 ], [ 7.689102, 45.074383 ], [ 7.689009, 45.074242 ], [ 7.688938, 45.074079 ], [ 7.688879, 45.074051 ], [ 7.688773, 45.073934 ], [ 7.688726, 45.07357 ], [ 7.688753, 45.073229 ], [ 7.688572, 45.073107 ], [ 7.688529, 45.073038 ], [ 7.688537, 45.072975 ], [ 7.688568, 45.072887 ], [ 7.688678, 45.072784 ], [ 7.688863, 45.072657 ], [ 7.688882, 45.072575 ], [ 7.688932, 45.072364 ], [ 7.689198, 45.071739 ], [ 7.689003, 45.071657 ], [ 7.688807, 45.071609 ], [ 7.687896, 45.071542 ], [ 7.687788, 45.071522 ], [ 7.687694, 45.071479 ], [ 7.687645, 45.071424 ], [ 7.68758, 45.071344 ], [ 7.687483, 45.071207 ], [ 7.686868, 45.07143 ] ] } },
{ "type": "Feature", "properties": { "route_id": "torino_reale_monumentale", "route_title": "Torino Reale e Monumentale", "segment_id": "torino_reale_monumentale_05", "segment_index": 5, "from_artwork_id": "dito-colombo", "to_artwork_id": "mole-antonelliana", "from_title": "Il Dito di Colombo", "to_title": "Mole Antonelliana", "profile": "foot-walking", "distance_m": 699.6, "duration_min": 8.395, "notes": "Segmento generato automaticamente con ORS tra due tappe consecutive." }, "geometry": { "type": "LineString", "coordinates": [ [ 7.686868, 45.07143 ], [ 7.687483, 45.071207 ], [ 7.68751, 45.071198 ], [ 7.687556, 45.071181 ], [ 7.687596, 45.071163 ], [ 7.68761, 45.071139 ], [ 7.687666, 45.07111 ], [ 7.687615, 45.071026 ], [ 7.687741, 45.070964 ], [ 7.688578, 45.07068 ], [ 7.688779, 45.070582 ], [ 7.688785, 45.070563 ], [ 7.688654, 45.070376 ], [ 7.688375, 45.069984 ], [ 7.688514, 45.06991 ], [ 7.688504, 45.069894 ], [ 7.688533, 45.069879 ], [ 7.689676, 45.069465 ], [ 7.690729, 45.06904 ], [ 7.690748, 45.069033 ], [ 7.690832, 45.068999 ], [ 7.690865, 45.068985 ], [ 7.691101, 45.068892 ], [ 7.691832, 45.068606 ], [ 7.692374, 45.068396 ], [ 7.692385, 45.068411 ], [ 7.692397, 45.068427 ], [ 7.692818, 45.069003 ] ] } },
{ "type": "Feature", "properties": { "route_id": "contemporaneo_centro_mole", "route_title": "Arte Contemporanea tra Centro e Mole", "segment_id": "contemporaneo_centro_mole_01", "segment_index": 1, "from_artwork_id": "testa-michelangelo", "to_artwork_id": "palazzo-piercing", "from_title": "Testa rovesciata del David", "to_title": "Baci Urbani (Palazzo con il Piercing)", "profile": "foot-walking", "distance_m": 793.8, "duration_min": 9.525, "notes": "Segmento generato automaticamente con ORS tra due tappe consecutive." }, "geometry": { "type": "LineString", "coordinates": [ [ 7.683895, 45.06749 ], [ 7.684204, 45.067918 ], [ 7.684126, 45.067946 ], [ 7.683504, 45.068171 ], [ 7.683146, 45.0683 ], [ 7.683026, 45.068344 ], [ 7.682893, 45.068395 ], [ 7.682533, 45.068527 ], [ 7.682553, 45.068554 ], [ 7.681847, 45.068803 ], [ 7.681869, 45.068842 ], [ 7.681865, 45.068849 ], [ 7.681875, 45.06887 ], [ 7.682199, 45.069474 ], [ 7.682311, 45.069677 ], [ 7.682333, 45.069705 ], [ 7.682366, 45.069747 ], [ 7.682384, 45.069799 ], [ 7.682716, 45.070295 ], [ 7.682727, 45.07031 ], [ 7.682683, 45.070352 ], [ 7.682645, 45.070381 ], [ 7.682757, 45.070559 ], [ 7.682751, 45.07059 ], [ 7.682738, 45.070615 ], [ 7.682775, 45.070677 ], [ 7.682816, 45.070756 ], [ 7.682893, 45.070779 ], [ 7.682914, 45.07078 ], [ 7.683071, 45.071017 ], [ 7.683083, 45.071035 ], [ 7.683097, 45.071057 ], [ 7.683543, 45.071748 ], [ 7.682605, 45.072078 ], [ 7.682844, 45.072455 ], [ 7.682489, 45.072567 ], [ 7.682509, 45.072598 ], [ 7.682514, 45.072607 ] ] } },
{ "type": "Feature", "properties": { "route_id": "contemporaneo_centro_mole", "route_title": "Arte Contemporanea tra Centro e Mole", "segment_id": "contemporaneo_centro_mole_02", "segment_index": 2, "from_artwork_id": "palazzo-piercing", "to_artwork_id": "toro-muro", "from_title": "Baci Urbani (Palazzo con il Piercing)", "to_title": "T'ORO - Il Toro che esce dal muro", "profile": "foot-walking", "distance_m": 570.2, "duration_min": 6.8433333333333337, "notes": "Segmento generato automaticamente con ORS tra due tappe consecutive." }, "geometry": { "type": "LineString", "coordinates": [ [ 7.682514, 45.072607 ], [ 7.68254, 45.072648 ], [ 7.681933, 45.072839 ], [ 7.681952, 45.072868 ], [ 7.681967, 45.072893 ], [ 7.681992, 45.072931 ], [ 7.682053, 45.073027 ], [ 7.682165, 45.07321 ], [ 7.682282, 45.073413 ], [ 7.682309, 45.073462 ], [ 7.682332, 45.073501 ], [ 7.68251, 45.073822 ], [ 7.682468, 45.073833 ], [ 7.682486, 45.073866 ], [ 7.682298, 45.07394 ], [ 7.682271, 45.073961 ], [ 7.681935, 45.074102 ], [ 7.681895, 45.074116 ], [ 7.68186, 45.074129 ], [ 7.681924, 45.074227 ], [ 7.680929, 45.074486 ], [ 7.680913, 45.07449 ], [ 7.680903, 45.074495 ], [ 7.680005, 45.074806 ], [ 7.680015, 45.074819 ], [ 7.679033, 45.075122 ], [ 7.679093, 45.075201 ], [ 7.679209, 45.075373 ], [ 7.679229, 45.075367 ], [ 7.679437, 45.075646 ] ] } },
{ "type": "Feature", "properties": { "route_id": "contemporaneo_centro_mole", "route_title": "Arte Contemporanea tra Centro e Mole", "segment_id": "contemporaneo_centro_mole_03", "segment_index": 3, "from_artwork_id": "toro-muro", "to_artwork_id": "l-eco", "from_title": "T'ORO - Il Toro che esce dal muro", "to_title": "Eco", "profile": "foot-walking", "distance_m": 1808.7, "duration_min": 21.703333333333333, "notes": "Segmento generato automaticamente con ORS tra due tappe consecutive." }, "geometry": { "type": "LineString", "coordinates": [ [ 7.679437, 45.075646 ], [ 7.679229, 45.075367 ], [ 7.679209, 45.075373 ], [ 7.679093, 45.075201 ], [ 7.679033, 45.075122 ], [ 7.678652, 45.07454 ], [ 7.67866, 45.074521 ], [ 7.678649, 45.074504 ], [ 7.679546, 45.074178 ], [ 7.679534, 45.074161 ], [ 7.680291, 45.073903 ], [ 7.680468, 45.073829 ], [ 7.680486, 45.073822 ], [ 7.680507, 45.073814 ], [ 7.681435, 45.073489 ], [ 7.681429, 45.07348 ], [ 7.681284, 45.073265 ], [ 7.681042, 45.072903 ], [ 7.680999, 45.072839 ], [ 7.680921, 45.072718 ], [ 7.680894, 45.072682 ], [ 7.680938, 45.072667 ], [ 7.680965, 45.072656 ], [ 7.680985, 45.072649 ], [ 7.681653, 45.072414 ], [ 7.682605, 45.072078 ], [ 7.683543, 45.071748 ], [ 7.683097, 45.071057 ], [ 7.683083, 45.071035 ], [ 7.683127, 45.071019 ], [ 7.683181, 45.071001 ], [ 7.683657, 45.070845 ], [ 7.683923, 45.070758 ], [ 7.683927, 45.070717 ], [ 7.683898, 45.070645 ], [ 7.683953, 45.070625 ], [ 7.68404, 45.070637 ], [ 7.684106, 45.070617 ], [ 7.684421, 45.070517 ], [ 7.684489, 45.070493 ], [ 7.684552, 45.070471 ], [ 7.684637, 45.070443 ], [ 7.684677, 45.070427 ], [ 7.685457, 45.070156 ], [ 7.685705, 45.070068 ], [ 7.685761, 45.070048 ], [ 7.685804, 45.070033 ], [ 7.686668, 45.069718 ], [ 7.68696, 45.070119 ], [ 7.686983, 45.070151 ], [ 7.686987, 45.070157 ], [ 7.686994, 45.070167 ], [ 7.687026, 45.070208 ], [ 7.687041, 45.070232 ], [ 7.687107, 45.070324 ], [ 7.68714, 45.070372 ], [ 7.687164, 45.070405 ], [ 7.687209, 45.070389 ], [ 7.688348, 45.069953 ], [ 7.688504, 45.069894 ], [ 7.688533, 45.069879 ], [ 7.689676, 45.069465 ], [ 7.690729, 45.06904 ], [ 7.690748, 45.069033 ], [ 7.690832, 45.068999 ], [ 7.690865, 45.068985 ], [ 7.691101, 45.068892 ], [ 7.691832, 45.068606 ], [ 7.692374, 45.068396 ], [ 7.692413, 45.068381 ], [ 7.692969, 45.06817 ], [ 7.693704, 45.067905 ] ] } },
{ "type": "Feature", "properties": { "route_id": "contemporaneo_centro_mole", "route_title": "Arte Contemporanea tra Centro e Mole", "segment_id": "contemporaneo_centro_mole_04", "segment_index": 4, "from_artwork_id": "l-eco", "to_artwork_id": "mole-antonelliana", "from_title": "Eco", "to_title": "Mole Antonelliana", "profile": "foot-walking", "distance_m": 193.9, "duration_min": 2.3266666666666667, "notes": "Segmento generato automaticamente con ORS tra due tappe consecutive." }, "geometry": { "type": "LineString", "coordinates": [ [ 7.693704, 45.067905 ], [ 7.692969, 45.06817 ], [ 7.692413, 45.068381 ], [ 7.692374, 45.068396 ], [ 7.692385, 45.068411 ], [ 7.692397, 45.068427 ], [ 7.692818, 45.069003 ] ] } },
{ "type": "Feature", "properties": { "route_id": "valentino_natura_memoria", "route_title": "Valentino, Natura e Memoria", "segment_id": "valentino_natura_memoria_01", "segment_index": 1, "from_artwork_id": "condominio-25-verde", "to_artwork_id": "orso-bordalo", "from_title": "Condominio 25 Verde", "to_title": "The Big Bear", "profile": "foot-walking", "distance_m": 1076.6, "duration_min": 12.918333333333333, "notes": "Segmento generato automaticamente con ORS tra due tappe consecutive." }, "geometry": { "type": "LineString", "coordinates": [ [ 7.679908, 45.045418 ], [ 7.680163, 45.046067 ], [ 7.679447, 45.046202 ], [ 7.679336, 45.046223 ], [ 7.679145, 45.046259 ], [ 7.678793, 45.046325 ], [ 7.678866, 45.046492 ], [ 7.679609, 45.047484 ], [ 7.67995, 45.047958 ], [ 7.680089, 45.048145 ], [ 7.680196, 45.048227 ], [ 7.680228, 45.048271 ], [ 7.680817, 45.049062 ], [ 7.680841, 45.04909 ], [ 7.681592, 45.050193 ], [ 7.681657, 45.050298 ], [ 7.681611, 45.050315 ], [ 7.681476, 45.050385 ], [ 7.68137, 45.050435 ], [ 7.681157, 45.050561 ], [ 7.680347, 45.050834 ], [ 7.6797, 45.051055 ], [ 7.680429, 45.052069 ], [ 7.679385, 45.052429 ] ] } },
{ "type": "Feature", "properties": { "route_id": "valentino_natura_memoria", "route_title": "Valentino, Natura e Memoria", "segment_id": "valentino_natura_memoria_02", "segment_index": 2, "from_artwork_id": "orso-bordalo", "to_artwork_id": "panchina-innamorati", "from_title": "The Big Bear", "to_title": "La Panchina degli Innamorati", "profile": "foot-walking", "distance_m": 657.9, "duration_min": 7.895, "notes": "Segmento generato automaticamente con ORS tra due tappe consecutive." }, "geometry": { "type": "LineString", "coordinates": [ [ 7.679385, 45.052429 ], [ 7.680429, 45.052069 ], [ 7.6797, 45.051055 ], [ 7.680347, 45.050834 ], [ 7.681157, 45.050561 ], [ 7.68137, 45.050435 ], [ 7.681476, 45.050385 ], [ 7.681611, 45.050315 ], [ 7.681657, 45.050298 ], [ 7.681861, 45.050199 ], [ 7.681946, 45.050126 ], [ 7.681959, 45.050085 ], [ 7.682006, 45.050056 ], [ 7.682482, 45.049883 ], [ 7.682641, 45.049742 ], [ 7.682791, 45.049753 ], [ 7.682885, 45.049762 ], [ 7.682953, 45.049734 ], [ 7.68307, 45.049687 ], [ 7.683103, 45.049683 ], [ 7.68318, 45.049689 ], [ 7.683256, 45.049709 ], [ 7.683269, 45.049626 ], [ 7.6834, 45.049559 ], [ 7.683406, 45.049532 ], [ 7.683443, 45.049516 ], [ 7.68348, 45.049423 ], [ 7.683635, 45.049453 ], [ 7.683796, 45.049551 ], [ 7.683889, 45.049583 ], [ 7.684203, 45.049669 ], [ 7.68431, 45.049678 ] ] } },
{ "type": "Feature", "properties": { "route_id": "valentino_natura_memoria", "route_title": "Valentino, Natura e Memoria", "segment_id": "valentino_natura_memoria_03", "segment_index": 3, "from_artwork_id": "panchina-innamorati", "to_artwork_id": "sommergibile-provana", "from_title": "La Panchina degli Innamorati", "to_title": "Sommergibile Andrea Provana", "profile": "foot-walking", "distance_m": 580.6, "duration_min": 6.9683333333333337, "notes": "Segmento generato automaticamente con ORS tra due tappe consecutive." }, "geometry": { "type": "LineString", "coordinates": [ [ 7.68431, 45.049678 ], [ 7.684203, 45.049669 ], [ 7.684227, 45.049434 ], [ 7.684184, 45.049372 ], [ 7.684119, 45.049329 ], [ 7.684079, 45.049264 ], [ 7.684012, 45.049248 ], [ 7.683994, 45.049121 ], [ 7.684046, 45.049057 ], [ 7.683887, 45.048978 ], [ 7.683791, 45.048969 ], [ 7.683848, 45.048856 ], [ 7.683853, 45.048776 ], [ 7.683816, 45.048701 ], [ 7.683733, 45.04869 ], [ 7.683687, 45.048659 ], [ 7.683668, 45.04862 ], [ 7.6837, 45.048566 ], [ 7.683639, 45.048497 ], [ 7.683513, 45.048413 ], [ 7.683453, 45.048389 ], [ 7.683587, 45.048031 ], [ 7.683774, 45.04729 ], [ 7.683703, 45.047282 ], [ 7.683776, 45.046867 ], [ 7.683839, 45.04673 ], [ 7.684157, 45.04629 ], [ 7.684195, 45.046146 ], [ 7.68419, 45.046007 ], [ 7.684127, 45.045891 ], [ 7.684055, 45.045807 ], [ 7.683897, 45.045549 ], [ 7.683689, 45.045205 ], [ 7.683616, 45.045101 ] ] } },
{ "type": "Feature", "properties": { "route_id": "mau_campidoglio", "route_title": "MAU - Museo d'Arte Urbana di Borgo Campidoglio", "segment_id": "mau_campidoglio_01", "segment_index": 1, "from_artwork_id": "mau-freedom", "to_artwork_id": "mau-assenza", "from_title": "Freedom", "to_title": "L’assenza", "profile": "foot-walking", "distance_m": 177.9, "duration_min": 2.135, "notes": "Segmento generato automaticamente con ORS tra due tappe consecutive." }, "geometry": { "type": "LineString", "coordinates": [ [ 7.657008, 45.084541 ], [ 7.657137, 45.084528 ], [ 7.657412, 45.0845 ], [ 7.657316, 45.084035 ], [ 7.65725, 45.084043 ], [ 7.657135, 45.084056 ], [ 7.657085, 45.083781 ], [ 7.656903, 45.083788 ], [ 7.656881, 45.083727 ], [ 7.656731, 45.083791 ], [ 7.656814, 45.083895 ] ] } },
{ "type": "Feature", "properties": { "route_id": "mau_campidoglio", "route_title": "MAU - Museo d'Arte Urbana di Borgo Campidoglio", "segment_id": "mau_campidoglio_02", "segment_index": 2, "from_artwork_id": "mau-assenza", "to_artwork_id": "mau-campidoglius", "from_title": "L’assenza", "to_title": "Campidoglius", "profile": "foot-walking", "distance_m": 102.9, "duration_min": 1.235, "notes": "Segmento generato automaticamente con ORS tra due tappe consecutive." }, "geometry": { "type": "LineString", "coordinates": [ [ 7.656814, 45.083895 ], [ 7.656731, 45.083791 ], [ 7.656881, 45.083727 ], [ 7.656903, 45.083788 ], [ 7.657085, 45.083781 ], [ 7.657135, 45.084056 ], [ 7.65725, 45.084043 ], [ 7.657316, 45.084035 ], [ 7.657333, 45.084117 ] ] } },
{ "type": "Feature", "properties": { "route_id": "mau_campidoglio", "route_title": "MAU - Museo d'Arte Urbana di Borgo Campidoglio", "segment_id": "mau_campidoglio_03", "segment_index": 3, "from_artwork_id": "mau-campidoglius", "to_artwork_id": "mau-cor-lesu", "from_title": "Campidoglius", "to_title": "Cor lesu", "profile": "foot-walking", "distance_m": 221.1, "duration_min": 2.6533333333333333, "notes": "Segmento generato automaticamente con ORS tra due tappe consecutive." }, "geometry": { "type": "LineString", "coordinates": [ [ 7.657333, 45.084117 ], [ 7.657316, 45.084035 ], [ 7.657238, 45.083652 ], [ 7.657972, 45.083603 ], [ 7.65821, 45.084352 ], [ 7.658503, 45.084256 ] ] } },
{ "type": "Feature", "properties": { "route_id": "torino_reale_accessibile", "route_title": "Torino Reale e Monumentale - Variante accessibile", "segment_id": "torino_reale_accessibile_02", "segment_index": 2, "from_artwork_id": "musei-reali", "to_artwork_id": "cappella-sindone", "from_title": "Musei Reali", "to_title": "Cappella della Sacra Sindone", "profile": "wheelchair", "distance_m": 95.9, "duration_min": 1.15, "notes": "Segmento generato automaticamente con ORS tra due tappe consecutive." }, "geometry": { "type": "LineString", "coordinates": [ [ 7.686019, 45.072493 ], [ 7.686126, 45.072647 ], [ 7.686153, 45.072684 ], [ 7.686274, 45.072867 ], [ 7.685942, 45.07298 ], [ 7.686054, 45.073149 ] ] } },
{ "type": "Feature", "properties": { "route_id": "mau_campidoglio_accessibile", "route_title": "MAU Borgo Campidoglio - Variante accessibile", "segment_id": "mau_campidoglio_accessibile_01", "segment_index": 1, "from_artwork_id": "mau-freedom", "to_artwork_id": "mau-assenza", "from_title": "Freedom", "to_title": "L’assenza", "profile": "wheelchair", "distance_m": 178.3, "duration_min": 2.175, "notes": "Segmento generato automaticamente con ORS tra due tappe consecutive." }, "geometry": { "type": "LineString", "coordinates": [ [ 7.657008, 45.084541 ], [ 7.657137, 45.084528 ], [ 7.657412, 45.0845 ], [ 7.657316, 45.084035 ], [ 7.65725, 45.084043 ], [ 7.657257, 45.084013 ], [ 7.657208, 45.083771 ], [ 7.657085, 45.083781 ], [ 7.656903, 45.083788 ], [ 7.656881, 45.083727 ], [ 7.656731, 45.083791 ], [ 7.656814, 45.083895 ] ] } },
{ "type": "Feature", "properties": { "route_id": "mau_campidoglio_accessibile", "route_title": "MAU Borgo Campidoglio - Variante accessibile", "segment_id": "mau_campidoglio_accessibile_02", "segment_index": 2, "from_artwork_id": "mau-assenza", "to_artwork_id": "mau-campidoglius", "from_title": "L’assenza", "to_title": "Campidoglius", "profile": "wheelchair", "distance_m": 103.3, "duration_min": 1.275, "notes": "Segmento generato automaticamente con ORS tra due tappe consecutive." }, "geometry": { "type": "LineString", "coordinates": [ [ 7.656814, 45.083895 ], [ 7.656731, 45.083791 ], [ 7.656881, 45.083727 ], [ 7.656903, 45.083788 ], [ 7.657085, 45.083781 ], [ 7.657208, 45.083771 ], [ 7.657257, 45.084013 ], [ 7.65725, 45.084043 ], [ 7.657316, 45.084035 ], [ 7.657333, 45.084117 ] ] } },
{ "type": "Feature", "properties": { "route_id": "mau_campidoglio_accessibile", "route_title": "MAU Borgo Campidoglio - Variante accessibile", "segment_id": "mau_campidoglio_accessibile_03", "segment_index": 3, "from_artwork_id": "mau-campidoglius", "to_artwork_id": "mau-cor-lesu", "from_title": "Campidoglius", "to_title": "Cor lesu", "profile": "wheelchair", "distance_m": 243.5, "duration_min": 2.89, "notes": "Segmento generato automaticamente con ORS tra due tappe consecutive." }, "geometry": { "type": "LineString", "coordinates": [ [ 7.657333, 45.084117 ], [ 7.657316, 45.084035 ], [ 7.65725, 45.084043 ], [ 7.657257, 45.084013 ], [ 7.657208, 45.083771 ], [ 7.657173, 45.083611 ], [ 7.657223, 45.08359 ], [ 7.657238, 45.083652 ], [ 7.657972, 45.083603 ], [ 7.65821, 45.084352 ], [ 7.658503, 45.084256 ] ] } }
]
}
